[{"OBJECT_NAME":"STARLINK-36900","OBJECT_ID":"2026-038N","EPOCH":"2026-03-09T22:00:01.999584","MEAN_MOTION":15.88679859,"ECCENTRICITY":0.00012865,"INCLINATION":97.2706,"RA_OF_ASC_NODE":79.2285,"ARG_OF_PERICENTER":85.5458,"MEAN_ANOMALY":222.8089,"EPHEMERIS_TYPE":0,"CLASSIFICATION_TYPE":"U","NORAD_CAT_ID":67973,"ELEMENT_SET_NO":999,"REV_AT_EPOCH":323,"BSTAR":-0.0061933865,"MEAN_MOTION_DOT":-0.01495422,"MEAN_MOTION_DDOT":0},{"OBJECT_NAME":"CZ-6A DEB","OBJECT_ID":"2024-140AP","EPOCH":"2026-03-09T22:18:55.934784","MEAN_MOTION":15.63638112,"ECCENTRICITY":0.00667764,"INCLINATION":88.9828,"RA_OF_ASC_NODE":277.6017,"ARG_OF_PERICENTER":59.3743,"MEAN_ANOMALY":301.4087,"EPHEMERIS_TYPE":0,"CLASSIFICATION_TYPE":"U","NORAD_CAT_ID":60638,"ELEMENT_SET_NO":999,"REV_AT_EPOCH":8745,"BSTAR":0.0024220818,"MEAN_MOTION_DOT":0.00258741,"MEAN_MOTION_DDOT":0}]
